{"fetched_at":"2026-07-19T17:31:39.333Z","source":"https://celestrak.org/NORAD/elements/gp.php?NAME=JILIN&FORMAT=JSON","constellation":"jilin-1-kuanfu","records":[{"OBJECT_NAME":"JILIN-1 KUANFU 01","OBJECT_ID":"2020-003A","EPOCH":"2026-07-19T05:01:13.389600","CLASSIFICATION_TYPE":"U","MEAN_MOTION":15.10879757,"ECCENTRICITY":0.00096621,"INCLINATION":97.5017,"RA_OF_ASC_NODE":273.5405,"ARG_OF_PERICENTER":182.9116,"MEAN_ANOMALY":177.206,"EPHEMERIS_TYPE":0,"NORAD_CAT_ID":45016,"ELEMENT_SET_NO":999,"REV_AT_EPOCH":36016,"BSTAR":0.000098397447,"MEAN_MOTION_DOT":0.00001575,"MEAN_MOTION_DDOT":0},{"OBJECT_NAME":"JILIN-1 KUANFU-01B","OBJECT_ID":"2021-061A","EPOCH":"2026-07-19T07:36:28.165824","CLASSIFICATION_TYPE":"U","MEAN_MOTION":15.09817289,"ECCENTRICITY":0.00055066,"INCLINATION":97.5197,"RA_OF_ASC_NODE":275.9132,"ARG_OF_PERICENTER":322.7452,"MEAN_ANOMALY":37.3394,"EPHEMERIS_TYPE":0,"NORAD_CAT_ID":49003,"ELEMENT_SET_NO":999,"REV_AT_EPOCH":27819,"BSTAR":0.000051460308,"MEAN_MOTION_DOT":0.00000769,"MEAN_MOTION_DDOT":0},{"OBJECT_NAME":"JILIN-1 KUANFU 01C","OBJECT_ID":"2022-048A","EPOCH":"2026-07-19T05:50:09.655584","CLASSIFICATION_TYPE":"U","MEAN_MOTION":15.09610925,"ECCENTRICITY":0.00176428,"INCLINATION":97.5248,"RA_OF_ASC_NODE":276.8314,"ARG_OF_PERICENTER":205.5762,"MEAN_ANOMALY":154.4596,"EPHEMERIS_TYPE":0,"NORAD_CAT_ID":52443,"ELEMENT_SET_NO":999,"REV_AT_EPOCH":23203,"BSTAR":0.000087680781,"MEAN_MOTION_DOT":0.0000135,"MEAN_MOTION_DDOT":0},{"OBJECT_NAME":"JILIN-1 KUANFU 02A","OBJECT_ID":"2023-127A","EPOCH":"2026-07-19T06:13:15.365568","CLASSIFICATION_TYPE":"U","MEAN_MOTION":15.10831593,"ECCENTRICITY":0.00105677,"INCLINATION":97.5568,"RA_OF_ASC_NODE":293.6738,"ARG_OF_PERICENTER":221.1334,"MEAN_ANOMALY":138.9101,"EPHEMERIS_TYPE":0,"NORAD_CAT_ID":57696,"ELEMENT_SET_NO":999,"REV_AT_EPOCH":16047,"BSTAR":0.00013356407,"MEAN_MOTION_DOT":0.00002158,"MEAN_MOTION_DDOT":0},{"OBJECT_NAME":"JILIN-01 KUANFU 02B 1","OBJECT_ID":"2024-169A","EPOCH":"2026-07-19T06:39:50.440032","CLASSIFICATION_TYPE":"U","MEAN_MOTION":15.09071411,"ECCENTRICITY":0.00012068,"INCLINATION":97.5575,"RA_OF_ASC_NODE":289.3089,"ARG_OF_PERICENTER":319.3067,"MEAN_ANOMALY":40.8072,"EPHEMERIS_TYPE":0,"NORAD_CAT_ID":61189,"ELEMENT_SET_NO":999,"REV_AT_EPOCH":10066,"BSTAR":0.00010970924,"MEAN_MOTION_DOT":0.00001675,"MEAN_MOTION_DDOT":0},{"OBJECT_NAME":"JILIN-01 KUANFU 02B 2","OBJECT_ID":"2024-169B","EPOCH":"2026-07-19T06:10:38.873568","CLASSIFICATION_TYPE":"U","MEAN_MOTION":15.09033942,"ECCENTRICITY":0.00048938,"INCLINATION":97.5568,"RA_OF_ASC_NODE":288.6731,"ARG_OF_PERICENTER":260.5678,"MEAN_ANOMALY":99.4998,"EPHEMERIS_TYPE":0,"NORAD_CAT_ID":61190,"ELEMENT_SET_NO":999,"REV_AT_EPOCH":10066,"BSTAR":0.00013083732,"MEAN_MOTION_DOT":0.00002007,"MEAN_MOTION_DDOT":0},{"OBJECT_NAME":"JILIN-01 KUANFU 02B 3","OBJECT_ID":"2024-169C","EPOCH":"2026-07-19T06:23:23.351136","CLASSIFICATION_TYPE":"U","MEAN_MOTION":15.09072277,"ECCENTRICITY":0.00134328,"INCLINATION":97.5565,"RA_OF_ASC_NODE":289.1148,"ARG_OF_PERICENTER":191.5423,"MEAN_ANOMALY":168.5499,"EPHEMERIS_TYPE":0,"NORAD_CAT_ID":61191,"ELEMENT_SET_NO":999,"REV_AT_EPOCH":10066,"BSTAR":0.00012888187,"MEAN_MOTION_DOT":0.00001981,"MEAN_MOTION_DDOT":0},{"OBJECT_NAME":"JILIN-01 KUANFU 02B 4","OBJECT_ID":"2024-169D","EPOCH":"2026-07-19T05:38:28.428000","CLASSIFICATION_TYPE":"U","MEAN_MOTION":15.09059677,"ECCENTRICITY":0.00143295,"INCLINATION":97.5528,"RA_OF_ASC_NODE":288.6083,"ARG_OF_PERICENTER":150.6873,"MEAN_ANOMALY":209.5163,"EPHEMERIS_TYPE":0,"NORAD_CAT_ID":61192,"ELEMENT_SET_NO":999,"REV_AT_EPOCH":10066,"BSTAR":0.00011547274,"MEAN_MOTION_DOT":0.00001769,"MEAN_MOTION_DDOT":0},{"OBJECT_NAME":"JILIN-01 KUANFU 02B 5","OBJECT_ID":"2024-169E","EPOCH":"2026-07-19T06:55:09.650496","CLASSIFICATION_TYPE":"U","MEAN_MOTION":15.09089894,"ECCENTRICITY":0.00135432,"INCLINATION":97.5577,"RA_OF_ASC_NODE":289.4605,"ARG_OF_PERICENTER":173.5279,"MEAN_ANOMALY":186.6128,"EPHEMERIS_TYPE":0,"NORAD_CAT_ID":61193,"ELEMENT_SET_NO":999,"REV_AT_EPOCH":10067,"BSTAR":0.00010106913,"MEAN_MOTION_DOT":0.00001541,"MEAN_MOTION_DDOT":0},{"OBJECT_NAME":"JILIN-01 KUANFU 02B 6","OBJECT_ID":"2024-169F","EPOCH":"2026-07-19T05:53:52.069920","CLASSIFICATION_TYPE":"U","MEAN_MOTION":15.09050179,"ECCENTRICITY":0.00159769,"INCLINATION":97.5556,"RA_OF_ASC_NODE":289.3097,"ARG_OF_PERICENTER":206.8169,"MEAN_ANOMALY":153.2235,"EPHEMERIS_TYPE":0,"NORAD_CAT_ID":61194,"ELEMENT_SET_NO":999,"REV_AT_EPOCH":10067,"BSTAR":0.00011970321,"MEAN_MOTION_DOT":0.00001836,"MEAN_MOTION_DDOT":0}]}
