JILIN-1 KUANFU 01       
1 45016U 20003A   26200.20918275  .00001575  00000+0  98397-4 0  9992
2 45016  97.5017 273.5405 0009662 182.9116 177.2060 15.10879757360163
JILIN-1 KUANFU-01B      
1 49003U 21061A   26200.31699266  .00000769  00000+0  51460-4 0  9999
2 49003  97.5197 275.9132 0005506 322.7452  37.3394 15.09817289278192
JILIN-1 KUANFU 01C      
1 52443U 22048A   26200.24316731  .00001350  00000+0  87681-4 0  9993
2 52443  97.5248 276.8314 0017642 205.5762 154.4596 15.09610925232035
JILIN-1 KUANFU 02A      
1 57696U 23127A   26200.25920562  .00002158  00000+0  13356-3 0  9995
2 57696  97.5568 293.6738 0010567 221.1334 138.9101 15.10831593160475
JILIN-01 KUANFU 02B 1   
1 61189U 24169A   26200.27766713  .00001675  00000+0  10971-3 0  9995
2 61189  97.5575 289.3089 0001206 319.3067  40.8072 15.09071411100665
JILIN-01 KUANFU 02B 2   
1 61190U 24169B   26200.25739437  .00002007  00000+0  13084-3 0  9996
2 61190  97.5568 288.6731 0004893 260.5678  99.4998 15.09033942100669
JILIN-01 KUANFU 02B 3   
1 61191U 24169C   26200.26624249  .00001981  00000+0  12888-3 0  9993
2 61191  97.5565 289.1148 0013432 191.5423 168.5499 15.09072277100663
JILIN-01 KUANFU 02B 4   
1 61192U 24169D   26200.23505125  .00001769  00000+0  11547-3 0  9997
2 61192  97.5528 288.6083 0014329 150.6873 209.5163 15.09059677100669
JILIN-01 KUANFU 02B 5   
1 61193U 24169E   26200.28830614  .00001541  00000+0  10107-3 0  9996
2 61193  97.5577 289.4605 0013543 173.5279 186.6128 15.09089894100675
JILIN-01 KUANFU 02B 6   
1 61194U 24169F   26200.24574155  .00001836  00000+0  11970-3 0  9994
2 61194  97.5556 289.3097 0015976 206.8169 153.2235 15.09050179100670
